73P-BX/Schwassmann-Wachmann,e,11.3150,69.3870,199.3070,3.122669,0.1786138,0.69058721,93.3721,01/31.0/2024,2000,g 17.5,4.0
# From MPEC 2022-R15
73P-BY/Schwassmann-Wachmann,e,11.1815,199.3801,69.6903,3.032012,0.1866843,0.68217252,97.8030,01/31.0/2024,2000,g 17.4,4.0
# From MPEC 2024-BE0
74P/Smirnova-Chernykh,e,6.4935,53.6692,128.5575,4.819059,0.0931667,0.04399123,219.2275,01/31.0/2024,2000,g  5.0,6.0
# From CCO 7
75D/Kohoutek,e,5.9247,269.5547,175.5463,3.537543,0.1481329,0.49925060,156.8783,01/31.0/2024,2000,g  9.5,6.0
# From MPEC 2022-K19
76P/West-Kohoutek-Ikemura,e,30.4857,84.1093,359.9487,3.469291,0.1525257,0.53921899,237.4329,01/31.0/2024,2000,g  8.0,12.0
# From MPEC 2023-TM6
77P/Longmore,e,24.3184,14.7641,196.6930,3.622518,0.1429514,0.35170208,43.3160,01/31.0/2024,2000,g  7.0,8.0
# From MPEC 2021-O56
78P/Gehrels,e,6.2569,210.5314,192.6790,3.735731,0.1365025,0.46316167,240.4346,01/31.0/2024,2000,g  5.5,8.0
# From MPC 94675
79P/du Toit-Hartley,e,3.1488,281.7710,280.5296,2.944007,0.1951173,0.61922175,23.9304,01/31.0/2024,2000,g 16.0,4.0
# From MPEC 2023-RF3
80P/Peters-Hartley,e,29.9233,259.7868,339.2661,4.022755,0.1221571,0.59829963,51.0857,01/31.0/2024,2000,g  9.0,8.0
# From MPEC 2024-BE0
81P/Wild,e,3.2367,136.0939,41.5956,3.453047,0.1536033,0.53725529,63.1955,01/31.0/2024,2000,g  7.0,6.0
# From MPC133426
82P/Gehrels,e,1.1291,239.2368,226.4098,4.132371,0.1173289,0.12239547,240.3115,01/31.0/2024,2000,g 15.0,4.0
# From NK 932
83D/Russell,e,17.8257,226.3072,334.4375,3.843957,0.1307785,0.44141632,128.6086,01/31.0/2024,2000,g  9.0,4.0
# From MPEC 2020-FB5
84P/Giclas,e,7.5511,108.1647,281.6409,3.550086,0.1473485,0.51604987,196.7337,01/31.0/2024,2000,g  9.5,8.0
# From unp
85D/Boethin,e,4.1742,65.2841,333.0672,5.043852,0.0870083,0.77631511,111.3476,01/31.0/2024,2000,g  6.5,8.0
# From MPEC 2022-YB4
86P/Wild,e,15.5054,72.1475,180.3389,3.619025,0.1431583,0.37128805,103.2414,01/31.0/2024,2000,g 11.0,6.0
# From MPEC 2020-SI8
87P/Bus,e,2.7644,187.3204,50.5663,4.258901,0.1121393,0.24558414,152.9940,01/31.0/2024,2000,g  7.2,10.0
# From MPEC 2023-J29
88P/Howell,e,4.3819,56.6656,235.9231,3.107074,0.1799603,0.56326661,220.0084,01/31.0/2024,2000,g 11.0,6.0
# From MPEC 2023-J29
89P/Russell,e,12.0721,41.3460,250.4006,3.752010,0.1356151,0.40782588,352.4591,01/31.0/2024,2000,g 11.5,6.0
# From MPEC 2022-K19
90P/Gehrels,e,9.6489,13.2168,29.1024,6.051907,0.0662012,0.51113707,159.7254,01/31.0/2024,2000,g  8.5,6.0
# From MPEC 2023-VM5
91P/Russell,e,15.6490,243.5019,358.9224,3.908837,0.1275360,0.33127007,150.7987,01/31.0/2024,2000,g  7.5,6.0
# From MPEC 2014-J58
92P/Sanguin,e,19.4961,181.3779,163.8017,5.342841,0.0798079,0.66058680,259.3803,01/31.0/2024,2000,g 12.0,6.0
# From NK 2707
93P/Lovas,e,12.2047,339.5877,74.9337,4.377525,0.1076121,0.61396959,271.4557,01/31.0/2024,2000,g  9.0,4.0
# From MPEC 2024-BE0
94P/Russell,e,6.1879,70.8519,92.4079,3.510614,0.1498406,0.36565968,38.2016,01/31.0/2024,2000,g  9.0,6.0
# From MPC 75717
95P/Chiron,e,6.9225,209.1993,339.4214,13.71084,0.0194137,0.37670273,199.7658,01/31.0/2024,2000,g  6.5,2.0
# From MPEC 2023-N01
96P/Machholz,e,57.5369,93.9541,14.7432,3.030790,0.1867972,0.96161676,68.1622,01/31.0/2024,2000,g 13.0,4.8
# From MPC106348
96P-B/Machholz,e,57.5047,14.7252,93.9512,3.030167,0.1868548,0.96162073,68.1840,01/31.0/2024,2000,g 13.0,4.8
# From MPC103849
96P-C/Machholz,e,58.5311,94.3495,15.5380,3.011920,0.1885553,0.95889850,359.8715,07/14.0/2012,2000,g  9.0,4.0
# From MPEC 2022-C56
97P/Metcalf-Brewington,e,17.9488,184.1188,230.0466,4.765832,0.0947318,0.46030329,67.6442,01/31.0/2024,2000,g  5.5,6.0
# From MPEC 2021-W31
98P/Takamizawa,e,10.5693,114.6416,157.7381,3.790339,0.1335633,0.56256302,149.8441,01/31.0/2024,2000,g  9.0,8.0
# From MPEC 2024-A43
99P/Kowal,e,4.3394,28.0956,174.6918,6.097631,0.0654579,0.22853969,43.2454,01/31.0/2024,2000,g  4.5,6.0
# From MPEC 2023-OA6
100P/Hartley,e,25.5673,37.6857,181.9639,3.430567,0.1551155,0.41171922,83.4801,01/31.0/2024,2000,g  9.0,8.0
# From MPEC 2022-K19
101P/Chernykh,e,5.0495,116.2401,277.7967,5.812895,0.0703259,0.59628610,103.9795,01/31.0/2024,2000,g 10.0,4.8
# From MPC105241
101P-B/Chernykh,e,5.0499,278.5574,115.4820,5.828383,0.0700458,0.59649754,102.3199,01/31.0/2024,2000,g  9.0,4.0
# From MPEC 2022-C56
102P/Shoemaker,e,25.8729,339.4113,20.6583,3.818231,0.1321024,0.45669281,145.7760,01/31.0/2024,2000,g  6.5,8.0
# From MPEC 2024-BE0
103P/Hartley,e,13.6107,219.7495,181.2992,3.474485,0.1521838,0.69374270,16.8151,01/31.0/2024,2000,g  8.5,8.0
# From MPEC 2023-G31
104P/Kowal,e,5.7031,207.2080,227.2555,3.208662,0.1714818,0.66584492,128.4598,01/31.0/2024,2000,g 16.0,4.0
# From MPEC 2024-BE0
105P/SingerBrewster,e,9.1682,192.3972,46.3699,3.471189,0.1524006,0.40888852,305.4611,01/31.0/2024,2000,g 11.5,6.0
# From MPEC 2023-UR6
106P/Schuster,e,19.5405,48.8621,353.7638,3.766869,0.1348135,0.59392729,120.6524,01/31.0/2024,2000,g 14.0,4.8
# From MPEC 2015-M77
107P/Wilson-Harrington,e,2.7986,266.7550,95.4881,2.625153,0.2317246,0.63145354,121.5156,01/31.0/2024,2000,g  9.0,4.0
# From MPEC 2022-P82
108P/Ciffreo,e,11.4362,50.2975,354.4947,3.742341,0.1361410,0.55608518,118.7996,01/31.0/2024,2000,g  8.0,12.0
# From  105, 420
109P/Swift-Tuttle,e,113.5063,139.4123,153.1983,26.21143,0.0073446,0.96256217,83.4766,01/31.0/2024,2000,g  4.0,6.0
# From MPEC 2023-KD6
110P/Hartley,e,11.7069,287.4948,167.4951,3.603943,0.1440579,0.31896252,120.1920,01/31.0/2024,2000,g  1.0,12.0
# From MPC 75718
111P/Helin-Roman-Crockett,e,4.2258,89.8144,1.1855,4.152056,0.1164956,0.10709303,111.5228,01/31.0/2024,2000,g  5.0,8.0
# From MPEC 2021-S45
112P/Urata-Niijima,e,24.2103,31.8352,21.4940,3.523730,0.1490048,0.59081947,216.2712,01/31.0/2024,2000,g 14.0,6.0
# From MPEC 2023-VM5
113P/Spitaler,e,5.2879,306.6612,115.6206,3.694025,0.1388208,0.41994787,84.4468,01/31.0/2024,2000,g 13.5,4.0
# From MPEC 2023-A50
114P/Wiseman-Skiff,e,18.2995,271.0234,172.7618,3.541814,0.1478650,0.55587301,218.3511,01/31.0/2024,2000,g 11.5,6.0
# From MPEC 2023-J29
115P/Maury,e,11.6770,176.0140,120.9750,4.272181,0.1116168,0.51758658,143.0572,01/31.0/2024,2000,g 10.5,6.0
# From MPEC 2023-VM5
116P/Wild,e,3.6034,20.9724,173.2131,3.487817,0.1513121,0.37031788,85.2377,01/31.0/2024,2000,g  2.5,10.0
# From MPEC 2024-BE0
117P/Helin-Roman-Alu,e,8.7054,58.8145,223.4447,4.092212,0.1190603,0.25606131,67.8690,01/31.0/2024,2000,g  2.5,8.0
# From MPEC 2023-XP6
118P/Shoemaker-Levy,e,10.0903,142.0873,314.8781,3.348099,0.1608817,0.45368864,69.5913,01/31.0/2024,2000,g 12.0,4.0
# From MPEC 2024-BE0
119P/Parker-Hartley,e,7.3923,104.5603,322.1627,3.807139,0.1326802,0.38837941,71.2138,01/31.0/2024,2000,g  3.5,8.0
# From MPEC 2022-CN4
120P/Mueller,e,8.4874,358.7239,36.7021,3.967694,0.1247087,0.37474762,124.4856,01/31.0/2024,2000,g 12.0,4.0
# From MPEC 2024-BE0
121P/Shoemaker-Holt,e,20.1631,94.1128,11.7298,4.585437,0.1003767,0.18645341,21.6604,01/31.0/2024,2000,g  6.5,8.0
# From MPC 75718
122P/de Vico,e,85.9039,79.7197,12.9916,17.62742,0.0133174,0.96244382,138.0071,01/31.0/2024,2000,g  7.5,5.2
# From MPEC 2021-F20
123P/West-Hartley,e,15.2797,45.9036,104.0279,3.881359,0.1288927,0.44428487,235.5224,01/31.0/2024,2000,g 12.2,4.0
# From MPEC 2023-T65
124P/Mrkos,e,31.4623,0.0773,185.1923,3.372608,0.1591312,0.48695148,220.7951,01/31.0/2024,2000,g 13.5,2.8
# From MPEC 2024-BE0
125P/Spacewatch,e,9.9848,153.1510,87.1401,3.129375,0.1780400,0.51214165,353.5379,01/31.0/2024,2000,g 13.0,6.0
# From MPEC 2024-BE0
126P/IRAS,e,45.8708,357.8641,356.5829,5.634989,0.0736825,0.69647086,15.4517,01/31.0/2024,2000,g  6.0,8.0
# From MPEC 2024-AF0
127P/Holt-Olmstead,e,14.3007,13.6073,6.3007,3.452670,0.1536284,0.35931307,82.7425,01/31.0/2024,2000,g 11.0,6.0
# From MPC 89014
128P/Shoemaker-Holt,e,4.3704,214.3405,210.3455,4.485744,0.1037414,0.32233476,266.9113,01/31.0/2024,2000,g  8.5,4.0
# From MPEC 2024-BE0
129P/Shoemaker-Levy,e,3.4423,184.8609,307.5296,4.291362,0.1108693,0.08551728,47.2577,01/31.0/2024,2000,g 11.0,4.0
# From MPEC 2024-BE0
130P/McNaught-Hughes,e,6.0636,70.1786,246.1247,3.381499,0.1585040,0.46089229,348.1319,01/31.0/2024,2000,g 10.0,6.0
# From MPC102101
131P/Mueller,e,7.3606,214.1780,179.1102,3.677224,0.1397732,0.34491171,255.6901,01/31.0/2024,2000,g 11.0,4.0
# From MPEC 2024-BE0
132P/Helin-Roman-Alu,e,5.3815,173.9950,216.4477,3.890242,0.1284515,0.56460648,103.8855,01/31.0/2024,2000,g 11.0,6.0
# From MPC 94676
133P/Elst-Pizarro,e,1.3897,160.1016,131.9166,3.164679,0.1750692,0.15608819,342.4362,01/31.0/2024,2000,g 15.4,2.0
# From MPC 89012
134P/Kowal-Vavrova,e,4.3350,202.0124,18.7842,6.267001,0.0628224,0.58508723,223.4585,01/31.0/2024,2000,g 11.5,4.0
# From MPEC 2022-OB6
135P/Shoemaker-Levy,e,6.0639,213.0192,22.3889,3.800329,0.1330369,0.29430096,88.2900,01/31.0/2024,2000,g  7.0,8.0
# From MPEC 2022-K19
136P/Mueller,e,9.4276,137.4970,225.1466,4.186564,0.1150582,0.29328665,321.0884,01/31.0/2024,2000,g 11.0,4.0
# From MPEC 2023-J29
137P/Shoemaker-Levy,e,4.8601,232.9272,141.2123,4.522266,0.1024873,0.57362303,191.9200,01/31.0/2024,2000,g 11.0,4.0
# From MPEC 2016-U66
138P/Shoemaker-Levy,e,10.0954,309.2947,95.6174,3.619084,0.1431549,0.53160718,247.8889,01/31.0/2024,2000,g 15.0,6.0
# From MPEC 2020-HN5
139P/Vaisala-Oterma,e,2.3372,242.1798,165.8309,4.516383,0.1026876,0.24830310,229.8057,01/31.0/2024,2000,g  9.5,4.0
# From MPEC 2015-E14
140P/Bowell-Skiff,e,3.7964,343.3178,172.4010,6.405920,0.0607900,0.69602080,189.0926,01/31.0/2024,2000,g 11.5,6.0
# From MPEC 2022-K19
141P/Machholz,e,13.9547,241.8107,153.5999,3.057560,0.1843494,0.73608908,210.1625,01/31.0/2024,2000,g 12.0,12.0
# From MPEC 2015-KD9
141P-A/Machholz,e,13.9439,153.5568,241.8675,3.057694,0.1843372,0.73608508,210.1161,01/31.0/2024,2000,g 12.0,12.0
# From MPC 24216
141P-B/Machholz,e,13.9878,153.6325,241.7568,3.056084,0.1844829,0.73584293,211.4691,01/31.0/2024,2000,g  9.0,4.0
# From MPC 37026
141P-D/Machholz,e,13.8359,153.2839,242.1151,3.066144,0.1835757,0.73704023,206.1044,01/31.0/2024,2000,g  9.0,4.0
# From MPEC 2015-R12
